STARLINK-30080
1 56705U 23067T   26061.16668981  .00051541  00000+0  38875-2 0  9999
2 56705  43.0001 302.2624 0001083 280.2196 313.9534 15.01699766  5814
